ORBCOMM FM05            
1 25117U 97084F   25220.86225065  .00001228  00000+0  38121-3 0  9999
2 25117  45.0145 115.1163 0001999  85.8258 274.2822 14.46070196448235
ORBCOMM FM06            
1 25118U 97084G   25220.11882830  .00001201  00000+0  37276-3 0  9998
2 25118  45.0138 118.3673 0001333  53.4128  99.8110 14.46206109449044
ORBCOMM FM07            
1 25119U 97084H   25220.86273971  .00001368  00000+0  41885-3 0  9996
2 25119  45.0134 115.5610 0002847  89.8863 270.2315 14.46212449449148
ORBCOMM FM03            
1 25158U 98007B   25220.91171750  .00000818  00000+0  33221-3 0  9997
2 25158 107.9676 243.9233 0044365 158.8638 201.4346 14.34601196431605
ORBCOMM FM04            
1 25159U 98007C   25220.74744874  .00000741  00000+0  30443-3 0  9990
2 25159 107.9665 246.8433 0040091 156.7798 203.5163 14.34844807431769
ORBCOMM FM17            
1 25413U 98046A   25220.95596584  .00000746  00000+0  30773-3 0  9993
2 25413  44.9957   8.5489 0003418 135.2313 224.8810 14.35174801410759
ORBCOMM FM18            
1 25414U 98046B   25220.50261146  .00000671  00000+0  26300-3 0  9996
2 25414  44.9931 286.6854 0006269 205.5730 154.4809 14.38660792411780
ORBCOMM FM19            
1 25415U 98046C   25220.90585950  .00000846  00000+0  32080-3 0  9999
2 25415  44.9943 286.8531 0005009 207.5179 322.3863 14.38473446411995
